IRIDIUM 159             
1 43578U 18061K   24120.45002883  .00000425  00000+0  14455-3 0  9994
2 43578  86.4015  22.1466 0002221  90.7061 269.4390 14.34217717301761
IRIDIUM 180             
1 43922U 19002A   24120.79835496  .00000064  00000+0  15826-4 0  9997
2 43922  86.3942 318.9081 0002239  90.7087 269.4365 14.34212268277465
IRIDIUM 176             
1 43923U 19002B   24120.52094657  .00000623  00000+0  94970-4 0  9993
2 43923  86.6068 319.0496 0002400  94.0194 266.1297 14.72233904284688
IRIDIUM 168             
1 43924U 19002C   24120.58270560  .00000145  00000+0  44791-4 0  9994
2 43924  86.3943 319.0537 0002119  91.5819 268.5619 14.34214505277373
IRIDIUM 173             
1 43925U 19002D   24120.57002268  .00000111  00000+0  32488-4 0  9995
2 43925  86.3941 318.9799 0002192  90.6693 269.4754 14.34216239277355
IRIDIUM 169             
1 43926U 19002E   24120.57538608  .00000603  00000+0  19059-3 0  9992
2 43926  86.4249 350.5897 0003898  60.1628 299.9958 14.38604714278283
IRIDIUM 172             
1 43927U 19002F   24120.56368151  .00000041  00000+0  76241-5 0  9990
2 43927  86.3941 318.9880 0002140  92.2239 267.9201 14.34215750277363
IRIDIUM 175             
1 43928U 19002G   24120.85501132  .00000725  00000+0  11108-3 0  9999
2 43928  86.1465 294.7721 0002357  88.7623 271.3864 14.72243402284724
